UNKNOWN                 
1 89255U          22278.18817707  .00001233  00000+0  16545-2 0  9990
2 89255  98.6560 191.6053 0359493 168.0793 192.9135 13.37925513339247
UNKNOWN                 
1 89261U          22276.53600826  .00000722  00000+0  24466-3 0  9990
2 89261  98.1980 307.7681 0014820  90.9803 269.3083 14.39494527365844
UNKNOWN                 
1 89304U          22279.29736887  .00003556  00000+0  17853-1 0  9999
2 89304  84.8506  24.4610 2681737 350.8639  21.1091  8.87756645334541
UNKNOWN                 
1 89314U          22278.22228970  .00004402  00000+0  10055-1 0  9999
2 89314  19.3513 324.7286 7126719  58.6270 351.8777  2.40172663 59689
UNKNOWN                 
1 89327U          22280.48916503  .00001372  00000+0  11555-2 0  9990
2 89327  82.5530 190.1352 0006106 147.0274 213.1269 13.87212879313293
UNKNOWN                 
1 89347U          22279.81896428  .00128013  00000+0  14775-1 0  9998
2 89347  86.2536 117.2036 0048195 186.1613 173.9025 14.84122468327296
UNKNOWN                 
1 89349U          22280.15764230  .00000486  00000+0  16889-2 0  9996
2 89349  90.2634 340.8914 0033222  81.5693 278.9190 12.95623167328171
UNKNOWN                 
1 89379U          22280.50081179  .00006664  00000+0  10491-1 0  9998
2 89379 100.5532 205.4034 0052528  63.4083 297.2418 13.49786256423270
UNKNOWN                 
1 89381U          22280.46498242  .00236315  00000+0  19301-1 0  9996
2 89381  98.7328 104.3664 0035163 133.6426 226.7718 14.97687829306075
UNKNOWN                 
1 89389U          22280.23990404  .00018140  00000+0  24487-2 0  9992
2 89389  74.0472 211.6824 0077722 196.2586 163.6096 14.76960346370972
UNKNOWN                 
1 89391U          22280.36579050  .00018645  00000+0  15157-2 0  9993
2 89391  97.4570  62.1205 0180795 357.0431   2.9701 14.87643964253329
UNKNOWN                 
1 89395U          22277.51606792  .00000423  00000+0  52741-2 0  9999
2 89395 102.3149 299.7336 0224511 311.4269 214.4152 12.01191505384814
UNKNOWN                 
1 89403U          22276.67365851  .00003644  00000+0  12583-1 0  9990
2 89403  90.2603 339.1907 0031579  86.1113  75.0417 12.96998638326571
UNKNOWN                 
1 89453U          22279.71304937  .00060082  00000+0  32737-2 0  9994
2 89453  97.3095  78.5584 0117838 138.2894 222.7394 15.08331781332839
UNKNOWN                 
1 89460U          22279.64336077  .00001561  00000+0  31207-2 0  9992
2 89460 100.2737  60.5245 0058177 184.5723 175.4877 13.35732890277724
UNKNOWN                 
1 89483U          22273.43423159  .00009202  00000+0  94305-3 0  9995
2 89483  99.4750 331.5981 0253048  38.5283 323.3683 14.69873152325238
UNKNOWN                 
1 89484U          22280.40499531  .00001629  00000+0  10253-1 0  9991
2 89484  84.9617  83.1942 2633258  42.5398 335.1966  8.86937812251347
UNKNOWN                 
1 89490U          22280.33385852  .00018821  00000+0  84704-2 0  9995
2 89490  98.4000 242.7854 0130612  43.5879 317.5528 14.17848085314739
UNKNOWN                 
1 89492U          22280.28700278  .00002315  00000+0  17031-2 0  9994
2 89492  82.5270 283.2931 0027085  65.4843 294.9143 13.95052997405021
UNKNOWN                 
1 89493U          22278.06278080  .00002239  00000+0  13107-2 0  9994
2 89493  99.1123 319.2658 0092511  73.5530 287.5781 14.07191318299660
UNKNOWN                 
1 89494U          22280.07182036  .00002241  00000+0  13117-2 0  9998
2 89494  99.1112 321.2756 0093060  68.0296 293.0730 14.07177263299804
UNKNOWN                 
1 89496U          22273.19974614  .00046881  00000+0  43925-2 0  9994
2 89496  98.8642 359.9791 0073017 118.8067 242.0505 14.91829714306213
